{
  "type": "FeatureCollection",
  "features": [
    {
      "type": "Feature",
      "properties": {
        "norad_id": 32161,
        "name": "FENGYUN 1C DEB",
        "group": "fengyun-1c-debris",
        "lat": -1.2351734296796664,
        "lon": -82.85151061245585,
        "alt_km": 874.9735466402635,
        "timestamp": "2025-12-18T21:31:51.287205+00:00",
        "meta_object_name": "FENGYUN 1C DEB",
        "meta_object_id": "1999-025CTF",
        "meta_epoch": "2025-12-16T13:50:27.712896",
        "meta_mean_motion": 14.01876938,
        "meta_eccentricity": 0.01354983,
        "meta_inclination": 98.8318,
        "meta_ra_of_asc_node": 95.0929,
        "meta_arg_of_pericenter": 269.3857,
        "meta_mean_anomaly": 89.1783,
        "meta_ephemeris_type": 0,
        "meta_classification_type": "U",
        "meta_norad_cat_id": 32161,
        "meta_element_set_no": 999,
        "meta_rev_at_epoch": 63483,
        "meta_bstar": 0.00046170844,
        "meta_mean_motion_dot": 7.17e-06,
        "meta_mean_motion_ddot": 0,
        "tle_line1": "1 32161U 99025CTF 25350.57670964  .00000717  00000+0  46171-3 0  9993",
        "tle_line2": "2 32161  98.8318  95.0929 0135498 269.3857  89.1783 14.01876938634833"
      },
      "geometry": {
        "type": "Point",
        "coordinates": [
          -82.85151061245585,
          -1.2351734296796664
        ]
      }
    },
    {
      "type": "Feature",
      "properties": {
        "norad_id": 32162,
        "name": "FENGYUN 1C DEB",
        "group": "fengyun-1c-debris",
        "lat": 80.2195809187333,
        "lon": -65.66785093281433,
        "alt_km": 661.7613652897935,
        "timestamp": "2025-12-18T21:31:51.287215+00:00",
        "meta_object_name": "FENGYUN 1C DEB",
        "meta_object_id": "1999-025CTG",
        "meta_epoch": "2025-12-16T01:46:08.893920",
        "meta_mean_motion": 14.6208193,
        "meta_eccentricity": 0.00478933,
        "meta_inclination": 99.4644,
        "meta_ra_of_asc_node": 35.699,
        "meta_arg_of_pericenter": 160.6975,
        "meta_mean_anomaly": 199.6051,
        "meta_ephemeris_type": 0,
        "meta_classification_type": "U",
        "meta_norad_cat_id": 32162,
        "meta_element_set_no": 999,
        "meta_rev_at_epoch": 94967,
        "meta_bstar": 0.00091752228,
        "meta_mean_motion_dot": 4.625e-05,
        "meta_mean_motion_ddot": 0,
        "tle_line1": "1 32162U 99025CTG 25350.07371405  .00004625  00000+0  91752-3 0  9994",
        "tle_line2": "2 32162  99.4644  35.6990 0047893 160.6975 199.6051 14.62081930949679"
      },
      "geometry": {
        "type": "Point",
        "coordinates": [
          -65.66785093281433,
          80.2195809187333
        ]
      }
    },
    {
      "type": "Feature",
      "properties": {
        "norad_id": 32163,
        "name": "FENGYUN 1C DEB",
        "group": "fengyun-1c-debris",
        "lat": -56.595102889428134,
        "lon": 164.6820966599567,
        "alt_km": 782.7194005346782,
        "timestamp": "2025-12-18T21:31:51.287225+00:00",
        "meta_object_name": "FENGYUN 1C DEB",
        "meta_object_id": "1999-025CTH",
        "meta_epoch": "2025-12-17T06:09:38.740032",
        "meta_mean_motion": 14.43153942,
        "meta_eccentricity": 0.00514789,
        "meta_inclination": 99.5454,
        "meta_ra_of_asc_node": 357.6283,
        "meta_arg_of_pericenter": 21.6081,
        "meta_mean_anomaly": 338.7262,
        "meta_ephemeris_type": 0,
        "meta_classification_type": "U",
        "meta_norad_cat_id": 32163,
        "meta_element_set_no": 999,
        "meta_rev_at_epoch": 61041,
        "meta_bstar": 0.00073174998,
        "meta_mean_motion_dot": 2.443e-05,
        "meta_mean_motion_ddot": 0,
        "tle_line1": "1 32163U 99025CTH 25351.25669838  .00002443  00000+0  73175-3 0  9991",
        "tle_line2": "2 32163  99.5454 357.6283 0051478  21.6081 338.7262 14.43153942610419"
      },
      "geometry": {
        "type": "Point",
        "coordinates": [
          164.6820966599567,
          -56.595102889428134
        ]
      }
    },
    {
      "type": "Feature",
      "properties": {
        "norad_id": 32167,
        "name": "FENGYUN 1C DEB",
        "group": "fengyun-1c-debris",
        "lat": -13.263805097491,
        "lon": -10.660643275876055,
        "alt_km": 693.7637841285969,
        "timestamp": "2025-12-18T21:31:51.287235+00:00",
        "meta_object_name": "FENGYUN 1C DEB",
        "meta_object_id": "1999-025CTM",
        "meta_epoch": "2025-12-16T05:49:26.785632",
        "meta_mean_motion": 14.30987892,
        "meta_eccentricity": 0.01716497,
        "meta_inclination": 98.4935,
        "meta_ra_of_asc_node": 344.7253,
        "meta_arg_of_pericenter": 31.4386,
        "meta_mean_anomaly": 329.6921,
        "meta_ephemeris_type": 0,
        "meta_classification_type": "U",
        "meta_norad_cat_id": 32167,
        "meta_element_set_no": 999,
        "meta_rev_at_epoch": 62725,
        "meta_bstar": 0.00039856594,
        "meta_mean_motion_dot": 1.185e-05,
        "meta_mean_motion_ddot": 0,
        "tle_line1": "1 32167U 99025CTM 25350.24267113  .00001185  00000+0  39857-3 0  9994",
        "tle_line2": "2 32167  98.4935 344.7253 0171649  31.4386 329.6921 14.30987892627255"
      },
      "geometry": {
        "type": "Point",
        "coordinates": [
          -10.660643275876055,
          -13.263805097491
        ]
      }
    },
    {
      "type": "Feature",
      "properties": {
        "norad_id": 32168,
        "name": "FENGYUN 1C DEB",
        "group": "fengyun-1c-debris",
        "lat": -27.21712015668945,
        "lon": 69.54682335044215,
        "alt_km": 1002.5088717112458,
        "timestamp": "2025-12-18T21:31:51.287244+00:00",
        "meta_object_name": "FENGYUN 1C DEB",
        "meta_object_id": "1999-025CTN",
        "meta_epoch": "2025-12-15T22:38:45.880512",
        "meta_mean_motion": 13.86172318,
        "meta_eccentricity": 0.02433261,
        "meta_inclination": 101.6575,
        "meta_ra_of_asc_node": 59.781,
        "meta_arg_of_pericenter": 230.209,
        "meta_mean_anomaly": 127.7405,
        "meta_ephemeris_type": 0,
        "meta_classification_type": "U",
        "meta_norad_cat_id": 32168,
        "meta_element_set_no": 999,
        "meta_rev_at_epoch": 63524,
        "meta_bstar": 0.0026145493,
        "meta_mean_motion_dot": 3.743e-05,
        "meta_mean_motion_ddot": 0,
        "tle_line1": "1 32168U 99025CTN 25349.94358658  .00003743  00000+0  26145-2 0  9992",
        "tle_line2": "2 32168 101.6575  59.7810 0243326 230.2090 127.7405 13.86172318635249"
      },
      "geometry": {
        "type": "Point",
        "coordinates": [
          69.54682335044215,
          -27.21712015668945
        ]
      }
    },
    {
      "type": "Feature",
      "properties": {
        "norad_id": 32169,
        "name": "FENGYUN 1C DEB",
        "group": "fengyun-1c-debris",
        "lat": -80.63919808280521,
        "lon": -64.14257553135646,
        "alt_km": 697.6231131639561,
        "timestamp": "2025-12-18T21:31:51.287255+00:00",
        "meta_object_name": "FENGYUN 1C DEB",
        "meta_object_id": "1999-025CTP",
        "meta_epoch": "2025-12-17T06:41:58.521984",
        "meta_mean_motion": 14.67971537,
        "meta_eccentricity": 0.00335317,
        "meta_inclination": 98.5574,
        "meta_ra_of_asc_node": 180.1507,
        "meta_arg_of_pericenter": 104.9934,
        "meta_mean_anomaly": 255.4985,
        "meta_ephemeris_type": 0,
        "meta_classification_type": "U",
        "meta_norad_cat_id": 32169,
        "meta_element_set_no": 999,
        "meta_rev_at_epoch": 96685,
        "meta_bstar": 0.0032910802,
        "meta_mean_motion_dot": 0.00019004,
        "meta_mean_motion_ddot": 0,
        "tle_line1": "1 32169U 99025CTP 25351.27914956  .00019004  00000+0  32911-2 0  9996",
        "tle_line2": "2 32169  98.5574 180.1507 0033531 104.9934 255.4985 14.67971537966850"
      },
      "geometry": {
        "type": "Point",
        "coordinates": [
          -64.14257553135646,
          -80.63919808280521
        ]
      }
    },
    {
      "type": "Feature",
      "properties": {
        "norad_id": 32171,
        "name": "FENGYUN 1C DEB",
        "group": "fengyun-1c-debris",
        "lat": 32.74825836839918,
        "lon": 79.98184093679811,
        "alt_km": 1420.7197717060444,
        "timestamp": "2025-12-18T21:31:51.287265+00:00",
        "meta_object_name": "FENGYUN 1C DEB",
        "meta_object_id": "1999-025CTR",
        "meta_epoch": "2025-12-17T23:26:00.348288",
        "meta_mean_motion": 13.42609487,
        "meta_eccentricity": 0.04889541,
        "meta_inclination": 102.8055,
        "meta_ra_of_asc_node": 250.4011,
        "meta_arg_of_pericenter": 354.7461,
        "meta_mean_anomaly": 20.6247,
        "meta_ephemeris_type": 0,
        "meta_classification_type": "U",
        "meta_norad_cat_id": 32171,
        "meta_element_set_no": 999,
        "meta_rev_at_epoch": 60686,
        "meta_bstar": 0.0033377521,
        "meta_mean_motion_dot": 3.796e-05,
        "meta_mean_motion_ddot": 0,
        "tle_line1": "1 32171U 99025CTR 25351.97639292  .00003796  00000+0  33378-2 0  9992",
        "tle_line2": "2 32171 102.8055 250.4011 0488954 354.7461  20.6247 13.42609487606869"
      },
      "geometry": {
        "type": "Point",
        "coordinates": [
          79.98184093679811,
          32.74825836839918
        ]
      }
    }
  ]
}